[{"OBJECT_NAME":"HAWK-11A","OBJECT_ID":"2024-247F","EPOCH":"2026-03-09T12:17:43.893312","MEAN_MOTION":15.28849427,"ECCENTRICITY":0.00054663,"INCLINATION":44.9941,"RA_OF_ASC_NODE":114.3328,"ARG_OF_PERICENTER":327.3713,"MEAN_ANOMALY":32.6832,"EPHEMERIS_TYPE":0,"CLASSIFICATION_TYPE":"U","NORAD_CAT_ID":62382,"ELEMENT_SET_NO":999,"REV_AT_EPOCH":6774,"BSTAR":0.00034106017,"MEAN_MOTION_DOT":9.457e-5,"MEAN_MOTION_DDOT":0},{"OBJECT_NAME":"STARLINK-33851","OBJECT_ID":"2025-085V","EPOCH":"2026-03-09T05:38:43.323360","MEAN_MOTION":15.2757957,"ECCENTRICITY":0.00018338,"INCLINATION":43.0038,"RA_OF_ASC_NODE":33.1993,"ARG_OF_PERICENTER":257.4057,"MEAN_ANOMALY":102.659,"EPHEMERIS_TYPE":0,"CLASSIFICATION_TYPE":"U","NORAD_CAT_ID":63683,"ELEMENT_SET_NO":999,"REV_AT_EPOCH":4880,"BSTAR":0.001071424,"MEAN_MOTION_DOT":0.00029338,"MEAN_MOTION_DDOT":0}]
